{
    "links": {
        "self": "http://www.neowsapp.com/rest/v1/neo/3314251?api_key=iIulBulltgU6a56xZRHN4H3l9WmuAYTsLGpBGhQ2"
    },
    "id": "3314251",
    "neo_reference_id": "3314251",
    "name": "(2006 BF99)",
    "designation": "2006 BF99",
    "nasa_jpl_url": "http://ssd.jpl.nasa.gov/sbdb.cgi?sstr=3314251",
    "absolute_magnitude_h": 23.9,
    "estimated_diameter": {
        "kilometers": {
            "estimated_diameter_min": 0.04411182,
            "estimated_diameter_max": 0.0986370281
        },
        "meters": {
            "estimated_diameter_min": 44.1118199997,
            "estimated_diameter_max": 98.6370281305
        },
        "miles": {
            "estimated_diameter_min": 0.0274098057,
            "estimated_diameter_max": 0.0612901888
        },
        "feet": {
            "estimated_diameter_min": 144.7238235278,
            "estimated_diameter_max": 323.6123073718
        }
    },
    "is_potentially_hazardous_asteroid": false,
    "close_approach_data": [
        {
            "close_approach_date": "2006-01-23",
            "close_approach_date_full": "2006-Jan-23 15:41",
            "epoch_date_close_approach": 1138030860000,
            "relative_velocity": {
                "kilometers_per_second": "23.5372614715",
                "kilometers_per_hour": "84734.14129758",
                "miles_per_hour": "52650.5001857102"
            },
            "miss_distance": {
                "astronomical": "0.1135856841",
                "lunar": "44.1848311149",
                "kilometers": "16992176.403852867",
                "miles": "10558448.8155768846"
            },
            "orbiting_body": "Earth"
        }
    ],
    "orbital_data": {
        "orbit_id": "6",
        "orbit_determination_date": "2017-04-06 09:09:13",
        "first_observation_date": "2006-01-28",
        "last_observation_date": "2006-01-30",
        "data_arc_in_days": 2,
        "observations_used": 27,
        "orbit_uncertainty": "9",
        "minimum_orbit_intersection": ".0324903",
        "jupiter_tisserand_invariant": "4.788",
        "epoch_osculation": "2453764.5",
        "eccentricity": ".3787284980576016",
        "semi_major_axis": "1.266304355656277",
        "inclination": "41.99877946896459",
        "ascending_node_longitude": "307.1700311179708",
        "orbital_period": "520.4818360099212",
        "perihelion_distance": ".7867188089547764",
        "perihelion_argument": "85.60731517007154",
        "aphelion_distance": "1.745889902357778",
        "perihelion_time": "2453690.395335077559",
        "mean_anomaly": "51.25573560182847",
        "mean_motion": ".6916667885277323",
        "equinox": "J2000",
        "orbit_class": {
            "orbit_class_type": "APO",
            "orbit_class_description": "Near-Earth asteroid orbits which cross the Earth’s orbit similar to that of 1862 Apollo",
            "orbit_class_range": "a (semi-major axis) > 1.0 AU; q (perihelion) < 1.017 AU"
        }
    },
    "is_sentry_object": false
}